CORAL                   
1 67684U 98067YA  26083.47622175  .00078164  00000+0  10629-2 0  9999
2 67684  51.6305 357.6492 0012273 228.4697 131.5242 15.56803499  7096
GXIBA-1                 
1 67685U 98067YB  26082.94566353  .00047226  00000+0  73089-3 0  9991
2 67685  51.6338   0.8611 0011822 234.4096 125.5793 15.53503062  7007
UITMSAT-2               
1 67686U 98067YC  26083.06244469  .00055892  00000+0  83755-3 0  9996
2 67686  51.6326   0.1380 0008812 205.0636 154.9928 15.54352229  7026
HMU-SAT2                
1 67687U 98067YD  26083.01414055  .00041357  00000+0  64805-3 0  9998
2 67687  51.6328   0.5652 0008396 207.9190 152.1351 15.53258522  6937
LEOPARD                 
1 67688U 98067YE  26083.06786206  .00050002  00000+0  76118-3 0  9991
2 67688  51.6323   0.1737 0008646 205.7190 154.3372 15.53969684  6943
CREW DRAGON 12          
1 67796U 26031A   26083.48628161  .00013391  00000+0  25488-3 0  9998
2 67796  51.6345 359.2131 0006234 227.6352 132.4108 15.48523431558550
PROGRESS-MS 33          
1 68319U 26058A   26082.05109224  .00200487  28256-4  35870-3 0  9993
2 68319  51.6358   6.8873 0011621 152.2903 207.8729 16.01170532    69
